CCSDS_OEM_VERS = 1.0
CREATION_DATE  = 2017-05-11T11:47:08
ORIGINATOR     = GMAT USER

META_START
OBJECT_NAME          = MOPSSat_alt_35785_km_RAAN_180_166
OBJECT_ID            = SatId
CENTER_NAME          = Earth
REF_FRAME            = EME2000
TIME_SYSTEM          = UTC
START_TIME           = 2017-01-01T00:00:00.000
USEABLE_START_TIME   = 2017-01-01T00:00:00.000
USEABLE_STOP_TIME    = 2017-01-02T00:00:00.000
STOP_TIME            = 2017-01-02T00:00:00.000
INTERPOLATION        = Lagrange
INTERPOLATION_DEGREE = 7 
META_STOP


                                                                                   

2017-01-01T06:25:00.000   4.933895266155438e+04  -2.767836715222443e+04   4.822045723403114e+02   1.881388505194510e+00   1.046267754638724e+00  -1.834819800150935e-02
2017-01-01T06:25:10.000   4.935776111678702e+04  -2.766790142963075e+04   4.820210369922665e+02   1.880302550266579e+00   1.046876648076834e+00  -1.835886958026098e-02
2017-01-01T06:25:20.000   4.937655871349752e+04  -2.765742962115975e+04   4.818373949818223e+02   1.879216831116781e+00   1.047484947112413e+00  -1.836953077965232e-02
2017-01-01T06:25:30.000   4.939534545404309e+04  -2.764695173275232e+04   4.816536464127178e+02   1.878131347586021e+00   1.048092652387048e+00  -1.838018161086274e-02
2017-01-01T06:25:40.000   4.941412134080014e+04  -2.763646777033139e+04   4.814697913883779e+02   1.877046099513989e+00   1.048699764541974e+00  -1.839082208506546e-02
2017-01-01T06:25:50.000   4.943288637620885e+04  -2.762597773977666e+04   4.812858300114697e+02   1.875961086736588e+00   1.049306284219494e+00  -1.840145221345254e-02
2017-01-01T06:26:00.000   4.945164056270615e+04  -2.761548164696228e+04   4.811017623845638e+02   1.874876309089804e+00   1.049912212060834e+00  -1.841207200719718e-02
2017-01-01T06:26:10.000   4.947038390271915e+04  -2.760497949776070e+04   4.809175886102020e+02   1.873791766410099e+00   1.050517548705922e+00  -1.842268147745001e-02
2017-01-01T06:26:20.000   4.948911639864578e+04  -2.759447129805273e+04   4.807333087910733e+02   1.872707458535506e+00   1.051122294792759e+00  -1.843328063532788e-02
2017-01-01T06:26:30.000   4.950783805284055e+04  -2.758395705373649e+04   4.805489230301712e+02   1.871623385306476e+00   1.051726450956976e+00  -1.844386949190624e-02
2017-01-01T06:26:40.000   4.952654886766941e+04  -2.757343677069621e+04   4.803644314302460e+02   1.870539546562698e+00   1.052330017833600e+00  -1.845444805824998e-02
2017-01-01T06:26:50.000   4.954524884526411e+04  -2.756291045494156e+04   4.801798340962480e+02   1.869455942157360e+00   1.052932996049156e+00  -1.846501634527506e-02
2017-01-01T06:27:00.000   4.956393798782014e+04  -2.755237811243897e+04   4.799951311323711e+02   1.868372571939863e+00   1.053535386231250e+00  -1.847557436391650e-02
2017-01-01T06:27:10.000   4.958261629748564e+04  -2.754183974917437e+04   4.798103226431507e+02   1.867289435762253e+00   1.054137189005006e+00  -1.848612212506586e-02
2017-01-01T06:27:20.000   4.960128377679134e+04  -2.753129537091079e+04   4.796254087292155e+02   1.866206533454305e+00   1.054738405006910e+00  -1.849665963981397e-02
2017-01-01T06:27:30.000   4.961994042822175e+04  -2.752074498343007e+04   4.794403894915231e+02   1.865123864848375e+00   1.055339034870999e+00  -1.850718691920876e-02
2017-01-01T06:27:40.000   4.963858625431248e+04  -2.751018859247822e+04   4.792552650304044e+02   1.864041429773768e+00   1.055939079232004e+00  -1.851770397431039e-02
2017-01-01T06:27:50.000   4.965722125740728e+04  -2.749962620390135e+04   4.790700354479460e+02   1.862959228070791e+00   1.056538538717494e+00  -1.852821081605365e-02
2017-01-01T06:28:00.000   4.967584543983886e+04  -2.748905782354491e+04   4.788847008462244e+02   1.861877259580307e+00   1.057137413953739e+00  -1.853870745535054e-02
2017-01-01T06:28:10.000   4.969445880392828e+04  -2.747848345725354e+04   4.786992613273018e+02   1.860795524143753e+00   1.057735705565672e+00  -1.854919390308981e-02
2017-01-01T06:28:20.000   4.971306135180738e+04  -2.746790311097344e+04   4.785137169950220e+02   1.859714021613509e+00   1.058333414171222e+00  -1.855967017003740e-02
2017-01-01T06:28:30.000   4.973165308565862e+04  -2.745731679061464e+04   4.783280679525967e+02   1.858632751838916e+00   1.058930540388984e+00  -1.857013626697113e-02
2017-01-01T06:28:40.000   4.975023400762027e+04  -2.744672450210531e+04   4.781423143035542e+02   1.857551714671790e+00   1.059527084835195e+00  -1.858059220462745e-02
2017-01-01T06:28:50.000   4.976880412020595e+04  -2.743612625115261e+04   4.779564561475494e+02   1.856470909942026e+00   1.060123048137195e+00  -1.859103799393760e-02
2017-01-01T06:29:00.000   4.978736342588510e+04  -2.742552204348173e+04   4.777704935845534e+02   1.855390337481996e+00   1.060718430919961e+00  -1.860147364579142e-02
2017-01-01T06:29:10.000   4.980591192717791e+04  -2.741491188478197e+04   4.775844267139090e+02   1.854309997121030e+00   1.061313233809167e+00  -1.861189917109101e-02
2017-01-01T06:29:20.000   4.982444962641379e+04  -2.740429578084332e+04   4.773982556367250e+02   1.853229888699438e+00   1.061907457423396e+00  -1.862231458061435e-02
2017-01-01T06:29:30.000   4.984297652591110e+04  -2.739367373745536e+04   4.772119804541037e+02   1.852150012058092e+00   1.062501102379951e+00  -1.863271988511699e-02
2017-01-01T06:29:40.000   4.986149262797666e+04  -2.738304576040681e+04   4.770256012671337e+02   1.851070367038437e+00   1.063094169294818e+00  -1.864311509533151e-02
2017-01-01T06:29:50.000   4.987999793472904e+04  -2.737241185558867e+04   4.768391181786968e+02   1.849990953492843e+00   1.063686658777048e+00  -1.865350022186898e-02
2017-01-01T06:30:00.000   4.989849244833709e+04  -2.736177202885574e+04   4.766525312910423e+02   1.848911771270653e+00   1.064278571436361e+00  -1.866387527535231e-02
2017-01-01T06:30:10.000   4.991697617092579e+04  -2.735112628608107e+04   4.764658407067390e+02   1.847832820223682e+00   1.064869907880147e+00  -1.867424026636360e-02
2017-01-01T06:30:20.000   4.993544910499343e+04  -2.734047463291580e+04   4.762790465244647e+02   1.846754100181868e+00   1.065460668726810e+00  -1.868459520567814e-02
2017-01-01T06:30:30.000   4.995391125299434e+04  -2.732981707502928e+04   4.760921488432176e+02   1.845675610977624e+00   1.066050854592422e+00  -1.869494010403034e-02
2017-01-01T06:30:40.000   4.997236261743340e+04  -2.731915361805488e+04   4.759051477613660e+02   1.844597352440332e+00   1.066640466093749e+00  -1.870527497216693e-02
2017-01-01T06:30:50.000   4.999080320062563e+04  -2.730848426772733e+04   4.757180433790562e+02   1.843519324410335e+00   1.067229503840541e+00  -1.871559982071170e-02
2017-01-01T06:31:00.000   5.000923300487507e+04  -2.729780902978100e+04   4.755308357964292e+02   1.842441526728537e+00   1.067817968441285e+00  -1.872591466026636e-02
2017-01-01T06:31:10.000   5.002765203247425e+04  -2.728712790994966e+04   4.753435251136146e+02   1.841363959236421e+00   1.068405860503169e+00  -1.873621950140999e-02
2017-01-01T06:31:20.000   5.004606028552849e+04  -2.727644091406982e+04   4.751561114325463e+02   1.840286621786377e+00   1.068993180626516e+00  -1.874651435460136e-02
2017-01-01T06:31:30.000   5.006445776619307e+04  -2.726574804794183e+04   4.749685948545239e+02   1.839209514227773e+00   1.069579929412322e+00  -1.875679923031110e-02
2017-01-01T06:31:40.000   5.008284447657785e+04  -2.725504931738548e+04   4.747809754811893e+02   1.838132636412554e+00   1.070166107459221e+00  -1.876707413896858e-02
2017-01-01T06:31:50.000   5.010122041916918e+04  -2.724434472799471e+04   4.745932534102225e+02   1.837055988170531e+00   1.070751715376938e+00  -1.877733909119760e-02
2017-01-01T06:32:00.000   5.011958559640686e+04  -2.723363428538347e+04   4.744054287396573e+02   1.835979569334154e+00   1.071336753772804e+00  -1.878759409758006e-02
2017-01-01T06:32:10.000   5.013794001079335e+04  -2.722291799512238e+04   4.742175015667679e+02   1.834903379732119e+00   1.071921223255242e+00  -1.879783916871711e-02
2017-01-01T06:32:20.000   5.015628366459967e+04  -2.721219586290921e+04   4.740294719910573e+02   1.833827419206574e+00   1.072505124424371e+00  -1.880807431506444e-02
2017-01-01T06:32:30.000   5.017461656010818e+04  -2.720146789442825e+04   4.738413401117953e+02   1.832751687598914e+00   1.073088457879777e+00  -1.881829954706842e-02
2017-01-01T06:32:40.000   5.019293869955859e+04  -2.719073409538175e+04   4.736531060285654e+02   1.831676184752957e+00   1.073671224218776e+00  -1.882851487513574e-02
2017-01-01T06:32:50.000   5.021125008516312e+04  -2.717999447148173e+04   4.734647698411238e+02   1.830600910514062e+00   1.074253424036925e+00  -1.883872030964230e-02
2017-01-01T06:33:00.000   5.022955071912432e+04  -2.716924902843899e+04   4.732763316492060e+02   1.829525864728075e+00   1.074835057928568e+00  -1.884891586094288e-02
2017-01-01T06:33:10.000   5.024784060364169e+04  -2.715849777195924e+04   4.730877915524590e+02   1.828451047240940e+00   1.075416126487058e+00  -1.885910153937484e-02
2017-01-01T06:33:20.000   5.026611974097732e+04  -2.714774070770491e+04   4.728991496497712e+02   1.827376457894847e+00   1.075996630306847e+00  -1.886927735529500e-02
2017-01-01T06:33:30.000   5.028438813341202e+04  -2.713697784132050e+04   4.727104060397178e+02   1.826302096530805e+00   1.076576569982084e+00  -1.887944331905492e-02
2017-01-01T06:33:40.000   5.030264578324535e+04  -2.712620917843267e+04   4.725215608205611e+02   1.825227962988639e+00   1.077155946106624e+00  -1.888959944100100e-02
2017-01-01T06:33:50.000   5.032089269283864e+04  -2.711543472462438e+04   4.723326140897981e+02   1.824154057104440e+00   1.077734759275381e+00  -1.889974573149841e-02
2017-01-01T06:34:00.000   5.033912886455016e+04  -2.710465448547347e+04   4.721435659448369e+02   1.823080378714400e+00   1.078313010082286e+00  -1.890988220089501e-02
